QIANFAN-57              
1 62787U 25016C   25245.28251062  .00000128  00000+0  18027-3 0  9999
2 62787  88.9803 113.6737 0002694  77.9076 282.2377 13.50962896 33504
QIANFAN-58              
1 62788U 25016D   25245.25371043  .00000067  00000+0  85923-4 0  9991
2 62788  88.9772 113.5397 0012133 280.0106  79.9676 13.50969262 33542
QIANFAN-59              
1 62789U 25016E   25245.26602647  .00000131  00000+0  18426-3 0  9995
2 62789  88.9796 113.5850 0013091 283.3747  76.5944 13.50966241 33549
QIANFAN-60              
1 62790U 25016F   25245.18359152  .00000126  00000+0  17739-3 0  9998
2 62790  88.9777 113.5922 0013516 280.9924  78.9706 13.50963436 33514
QIANFAN-61              
1 62791U 25016G   25245.19604842  .00000133  00000+0  18708-3 0  9994
2 62791  88.9845 113.6798 0012967 279.5182  80.4504 13.50969145 33531
QIANFAN-62              
1 62792U 25016H   25245.20009508  .00000132  00000+0  18614-3 0  9990
2 62792  88.9791 113.6027 0014355 279.6837  80.2693 13.50963140 33523
QIANFAN-63              
1 62793U 25016J   25245.21251696  .00000127  00000+0  17779-3 0  9994
2 62793  88.9798 113.5432 0014213 284.7433  75.2143 13.50960111 33565
QIANFAN-64              
1 62794U 25016K   25245.27826595  .00000118  00000+0  16502-3 0  9990
2 62794  88.9784 113.5302 0011963 277.8826  82.0967 13.50962701 33562
